{"type": "FeatureCollection", "features": [ {"type": "Feature", "properties": {"norad_id": 30048, "name": "FENGYUN 1C DEB", "group": "fengyun-1c-debris", "lat": -66.73719723402421, "lon": 17.21840363958318, "alt_km": 842.1535655051875, "timestamp": "2025-12-18T15:47:11.496517+00:00", "meta": {"OBJECT_NAME": "FENGYUN 1C DEB", "OBJECT_ID": "1999-025NZ", "EPOCH": "2025-12-17T21:15:45.388800", "MEAN_MOTION": 13.79896303, "ECCENTRICITY": 0.01862815, "INCLINATION": 98.6664, "RA_OF_ASC_NODE": 217.2903, "ARG_OF_PERICENTER": 230.9672, "MEAN_ANOMALY": 144.536, "EPHEMERIS_TYPE": 0, "CLASSIFICATION_TYPE": "U", "NORAD_CAT_ID": 30048, "ELEMENT_SET_NO": 999, "REV_AT_EPOCH": 95197, "BSTAR": 0.00020750601, "MEAN_MOTION_DOT": 2.05e-06, "MEAN_MOTION_DDOT": 0}, "tle": {"line1": "1 30048U 99025NZ  25351.88594200  .00000205  00000+0  20751-3 0  9996", "line2": "2 30048  98.6664 217.2903 0186281 230.9672 144.5360 13.79896303951978"}}, "geometry": {"type": "Point", "coordinates": [17.21840363958318, -66.73719723402421]}}, {"type": "Feature", "properties": {"norad_id": 30050, "name": "FENGYUN 1C DEB", "group": "fengyun-1c-debris", "lat": -19.28315734070817, "lon": -46.36287262322746, "alt_km": 844.7776384585604, "timestamp": "2025-12-18T15:47:11.496528+00:00", "meta": {"OBJECT_NAME": "FENGYUN 1C DEB", "OBJECT_ID": "1999-025PB", "EPOCH": "2025-12-18T03:48:27.595872", "MEAN_MOTION": 13.85065313, "ECCENTRICITY": 0.01713766, "INCLINATION": 96.8183, "RA_OF_ASC_NODE": 310.8746, "ARG_OF_PERICENTER": 14.8175, "MEAN_ANOMALY": 359.6181, "EPHEMERIS_TYPE": 0, "CLASSIFICATION_TYPE": "U", "NORAD_CAT_ID": 30050, "ELEMENT_SET_NO": 999, "REV_AT_EPOCH": 95277, "BSTAR": 0.001065492, "MEAN_MOTION_DOT": 1.326e-05, "MEAN_MOTION_DDOT": 0}, "tle": {"line1": "1 30050U 99025PB  25352.15865273  .00001326  00000+0  10655-2 0  9997", "line2": "2 30050  96.8183 310.8746 0171376  14.8175 359.6181 13.85065313952773"}}, "geometry": {"type": "Point", "coordinates": [-46.36287262322746, -19.28315734070817]}}, {"type": "Feature", "properties": {"norad_id": 30052, "name": "FENGYUN 1C DEB", "group": "fengyun-1c-debris", "lat": 3.774032059349363, "lon": 17.471441822264808, "alt_km": 1168.4893511130304, "timestamp": "2025-12-18T15:47:11.496538+00:00", "meta": {"OBJECT_NAME": "FENGYUN 1C DEB", "OBJECT_ID": "1999-025PD", "EPOCH": "2025-12-18T07:20:01.279968", "MEAN_MOTION": 13.7296697, "ECCENTRICITY": 0.02891683, "INCLINATION": 99.2988, "RA_OF_ASC_NODE": 17.7482, "ARG_OF_PERICENTER": 217.6688, "MEAN_ANOMALY": 204.5415, "EPHEMERIS_TYPE": 0, "CLASSIFICATION_TYPE": "U", "NORAD_CAT_ID": 30052, "ELEMENT_SET_NO": 999, "REV_AT_EPOCH": 94631, "BSTAR": 0.00041412911, "MEAN_MOTION_DOT": 4.72e-06, "MEAN_MOTION_DDOT": 0}, "tle": {"line1": "1 30052U 99025PD  25352.30557037  .00000472  00000+0  41413-3 0  9990", "line2": "2 30052  99.2988  17.7482 0289168 217.6688 204.5415 13.72966970946312"}}, "geometry": {"type": "Point", "coordinates": [17.471441822264808, 3.774032059349363]}}, {"type": "Feature", "properties": {"norad_id": 30053, "name": "FENGYUN 1C DEB", "group": "fengyun-1c-debris", "lat": -70.44176421764462, "lon": -169.50922862802514, "alt_km": 719.0484471830687, "timestamp": "2025-12-18T15:47:11.496549+00:00", "meta": {"OBJECT_NAME": "FENGYUN 1C DEB", "OBJECT_ID": "1999-025PE", "EPOCH": "2025-12-17T23:37:44.216256", "MEAN_MOTION": 13.941666, "ECCENTRICITY": 0.03314603, "INCLINATION": 98.5756, "RA_OF_ASC_NODE": 164.7302, "ARG_OF_PERICENTER": 323.8115, "MEAN_ANOMALY": 188.8768, "EPHEMERIS_TYPE": 0, "CLASSIFICATION_TYPE": "U", "NORAD_CAT_ID": 30053, "ELEMENT_SET_NO": 999, "REV_AT_EPOCH": 95059, "BSTAR": 0.0011749555, "MEAN_MOTION_DOT": 2.416e-05, "MEAN_MOTION_DDOT": 0}, "tle": {"line1": "1 30053U 99025PE  25351.98453954  .00002416  00000+0  11750-2 0  9997", "line2": "2 30053  98.5756 164.7302 0331460 323.8115 188.8768 13.94166600950596"}}, "geometry": {"type": "Point", "coordinates": [-169.50922862802514, -70.44176421764462]}}, {"type": "Feature", "properties": {"norad_id": 30054, "name": "FENGYUN 1C DEB", "group": "fengyun-1c-debris", "lat": -48.04713849536214, "lon": -165.84247534691636, "alt_km": 1107.4648862033991, "timestamp": "2025-12-18T15:47:11.496559+00:00", "meta": {"OBJECT_NAME": "FENGYUN 1C DEB", "OBJECT_ID": "1999-025PF", "EPOCH": "2025-12-18T00:46:18.948000", "MEAN_MOTION": 13.69871545, "ECCENTRICITY": 0.02756239, "INCLINATION": 99.3711, "RA_OF_ASC_NODE": 24.1332, "ARG_OF_PERICENTER": 351.4989, "MEAN_ANOMALY": 36.4887, "EPHEMERIS_TYPE": 0, "CLASSIFICATION_TYPE": "U", "NORAD_CAT_ID": 30054, "ELEMENT_SET_NO": 999, "REV_AT_EPOCH": 94421, "BSTAR": 0.00047945798, "MEAN_MOTION_DOT": 5.05e-06, "MEAN_MOTION_DDOT": 0}, "tle": {"line1": "1 30054U 99025PF  25352.03216375  .00000505  00000+0  47946-3 0  9993", "line2": "2 30054  99.3711  24.1332 0275623 351.4989  36.4887 13.69871545944218"}}, "geometry": {"type": "Point", "coordinates": [-165.84247534691636, -48.04713849536214]}}, {"type": "Feature", "properties": {"norad_id": 30056, "name": "FENGYUN 1C DEB", "group": "fengyun-1c-debris", "lat": -80.320154947399, "lon": -61.55214595451063, "alt_km": 911.9915636427922, "timestamp": "2025-12-18T15:47:11.496570+00:00", "meta": {"OBJECT_NAME": "FENGYUN 1C DEB", "OBJECT_ID": "1999-025PH", "EPOCH": "2025-12-18T00:31:47.733600", "MEAN_MOTION": 13.74018293, "ECCENTRICITY": 0.0299346, "INCLINATION": 98.3222, "RA_OF_ASC_NODE": 176.9985, "ARG_OF_PERICENTER": 196.5693, "MEAN_ANOMALY": 162.5511, "EPHEMERIS_TYPE": 0, "CLASSIFICATION_TYPE": "U", "NORAD_CAT_ID": 30056, "ELEMENT_SET_NO": 999, "REV_AT_EPOCH": 94048, "BSTAR": 0.0019853217, "MEAN_MOTION_DOT": 2.542e-05, "MEAN_MOTION_DDOT": 0}, "tle": {"line1": "1 30056U 99025PH  25352.02208025  .00002542  00000+0  19853-2 0  9995", "line2": "2 30056  98.3222 176.9985 0299346 196.5693 162.5511 13.74018293940483"}}, "geometry": {"type": "Point", "coordinates": [-61.55214595451063, -80.320154947399]}}, {"type": "Feature", "properties": {"norad_id": 30057, "name": "FENGYUN 1C DEB", "group": "fengyun-1c-debris", "lat": 24.02800686172807, "lon": 56.831852066226745, "alt_km": 1102.3131348549723, "timestamp": "2025-12-18T15:47:11.496580+00:00", "meta": {"OBJECT_NAME": "FENGYUN 1C DEB", "OBJECT_ID": "1999-025PJ", "EPOCH": "2025-12-18T03:25:39.237600", "MEAN_MOTION": 13.57135229, "ECCENTRICITY": 0.02922739, "INCLINATION": 98.8834, "RA_OF_ASC_NODE": 60.3641, "ARG_OF_PERICENTER": 132.5783, "MEAN_ANOMALY": 260.4978, "EPHEMERIS_TYPE": 0, "CLASSIFICATION_TYPE": "U", "NORAD_CAT_ID": 30057, "ELEMENT_SET_NO": 999, "REV_AT_EPOCH": 93309, "BSTAR": 0.00099194914, "MEAN_MOTION_DOT": 8.96e-06, "MEAN_MOTION_DDOT": 0}, "tle": {"line1": "1 30057U 99025PJ  25352.14281525  .00000896  00000+0  99195-3 0  9993", "line2": "2 30057  98.8834  60.3641 0292273 132.5783 260.4978 13.57135229933099"}}, "geometry": {"type": "Point", "coordinates": [56.831852066226745, 24.02800686172807]}}, {"type": "Feature", "properties": {"norad_id": 30058, "name": "FENGYUN 1C DEB", "group": "fengyun-1c-debris", "lat": -80.07190335916819, "lon": 100.29772144818811, "alt_km": 1232.8654560546775, "timestamp": "2025-12-18T15:47:11.496590+00:00", "meta": {"OBJECT_NAME": "FENGYUN 1C DEB", "OBJECT_ID": "1999-025PK", "EPOCH": "2025-12-17T22:45:57.337920", "MEAN_MOTION": 13.48242912, "ECCENTRICITY": 0.03157403, "INCLINATION": 99.6499, "RA_OF_ASC_NODE": 356.0244, "ARG_OF_PERICENTER": 139.4566, "MEAN_ANOMALY": 284.9762, "EPHEMERIS_TYPE": 0, "CLASSIFICATION_TYPE": "U", "NORAD_CAT_ID": 30058, "ELEMENT_SET_NO": 999, "REV_AT_EPOCH": 92918, "BSTAR": 0.00057374112, "MEAN_MOTION_DOT": 4.41e-06, "MEAN_MOTION_DDOT": 0}, "tle": {"line1": "1 30058U 99025PK  25351.94858030  .00000441  00000+0  57374-3 0  9991", "line2": "2 30058  99.6499 356.0244 0315740 139.4566 284.9762 13.48242912929185"}}, "geometry": {"type": "Point", "coordinates": [100.29772144818811, -80.07190335916819]}}, {"type": "Feature", "properties": {"norad_id": 30059, "name": "FENGYUN 1C DEB", "group": "fengyun-1c-debris", "lat": 3.0429350223431726, "lon": -13.230216150726656, "alt_km": 1023.0139323852009, "timestamp": "2025-12-18T15:47:11.496602+00:00", "meta": {"OBJECT_NAME": "FENGYUN 1C DEB", "OBJECT_ID": "1999-025PL", "EPOCH": "2025-12-17T22:14:34.193760", "MEAN_MOTION": 13.45497688, "ECCENTRICITY": 0.03265301, "INCLINATION": 98.8226, "RA_OF_ASC_NODE": 346.5989, "ARG_OF_PERICENTER": 289.497, "MEAN_ANOMALY": 131.199, "EPHEMERIS_TYPE": 0, "CLASSIFICATION_TYPE": "U", "NORAD_CAT_ID": 30059, "ELEMENT_SET_NO": 999, "REV_AT_EPOCH": 92867, "BSTAR": 0.00032462838, "MEAN_MOTION_DOT": 2.26e-06, "MEAN_MOTION_DDOT": 0}, "tle": {"line1": "1 30059U 99025PL  25351.92678465  .00000226  00000+0  32463-3 0  9995", "line2": "2 30059  98.8226 346.5989 0326530 289.4970 131.1990 13.45497688928677"}}, "geometry": {"type": "Point", "coordinates": [-13.230216150726656, 3.0429350223431726]}}, {"type": "Feature", "properties": {"norad_id": 30060, "name": "FENGYUN 1C DEB", "group": "fengyun-1c-debris", "lat": -25.864918700528648, "lon": 34.35825618465109, "alt_km": 1320.1873938144954, "timestamp": "2025-12-18T15:47:11.496612+00:00", "meta": {"OBJECT_NAME": "FENGYUN 1C DEB", "OBJECT_ID": "1999-025PM", "EPOCH": "2025-12-18T04:39:02.124576", "MEAN_MOTION": 13.43776569, "ECCENTRICITY": 0.03452933, "INCLINATION": 99.315, "RA_OF_ASC_NODE": 218.4919, "ARG_OF_PERICENTER": 58.0229, "MEAN_ANOMALY": 62.5651, "EPHEMERIS_TYPE": 0, "CLASSIFICATION_TYPE": "U", "NORAD_CAT_ID": 30060, "ELEMENT_SET_NO": 999, "REV_AT_EPOCH": 92316, "BSTAR": 0.0021320152, "MEAN_MOTION_DOT": 1.719e-05, "MEAN_MOTION_DDOT": 0}, "tle": {"line1": "1 30060U 99025PM  25352.19377459  .00001719  00000+0  21320-2 0  9993", "line2": "2 30060  99.3150 218.4919 0345293  58.0229  62.5651 13.43776569923161"}}, "geometry": {"type": "Point", "coordinates": [34.35825618465109, -25.864918700528648]}}]}